ONEWEB-0196             
1 48218U 21031J   24294.76573187  .00000225  00000+0  57366-3 0  9993
2 48218  87.9012  49.8912 0001702  96.4772 263.6552 13.14502268168826
ONEWEB-0183             
1 48219U 21031K   24294.74033836 -.00000155  00000+0 -45329-3 0  9994
2 48219  87.9015  49.9116 0001500  98.3173 261.8127 13.14499994168918
ONEWEB-0187             
1 48221U 21031M   24294.73638807 -.00000291  00000+0 -82061-3 0  9990
2 48221  87.9009  49.9167 0001551  97.5777 262.5529 13.14500001168856
ONEWEB-0192             
1 48222U 21031N   24294.79268939  .00000181  00000+0  45426-3 0  9992
2 48222  87.9012  49.9039 0001723  95.9939 264.1387 13.14503011168777
ONEWEB-0219             
1 48223U 21031P   24294.77206480  .00000309  00000+0  79788-3 0  9994
2 48223  87.9011  49.8819 0001568  94.1861 265.9448 13.14500686168978
ONEWEB-0202             
1 48224U 21031Q   24294.75303965 -.00000059  00000+0 -19419-3 0  9998
2 48224  87.9010  49.9034 0002081  77.2208 282.9154 13.14502329168964
ONEWEB-0204             
1 48225U 21031R   24294.78712759  .00000170  00000+0  42368-3 0  9998
2 48225  87.9012  49.9084 0001477 110.8657 249.2631 13.14501007168858
